{"type": "FeatureCollection", "features": [ {"type": "Feature", "properties": {"norad_id": 37528, "name": "COSMOS 2251 DEB", "group": "cosmos-2251-debris", "lat": 33.32174364087811, "lon": -53.13730482098821, "alt_km": 733.3517200655606, "timestamp": "2025-12-04T10:51:50.503849+00:00", "meta": {"OBJECT_NAME": "COSMOS 2251 DEB", "OBJECT_ID": "1993-036BNH", "EPOCH": "2025-12-03T17:38:33.606816", "MEAN_MOTION": 14.50464938, "ECCENTRICITY": 0.00209786, "INCLINATION": 74.0361, "RA_OF_ASC_NODE": 139.0576, "ARG_OF_PERICENTER": 288.0784, "MEAN_ANOMALY": 71.8091, "EPHEMERIS_TYPE": 0, "CLASSIFICATION_TYPE": "U", "NORAD_CAT_ID": 37528, "ELEMENT_SET_NO": 999, "REV_AT_EPOCH": 85800, "BSTAR": 0.00065341092, "MEAN_MOTION_DOT": 2.535e-05, "MEAN_MOTION_DDOT": 0}, "tle": {"line1": "1 37528U 93036BNH 25337.73511119  .00002535  00000+0  65341-3 0  9990", "line2": "2 37528  74.0361 139.0576 0020978 288.0784  71.8091 14.50464938858003"}}, "geometry": {"type": "Point", "coordinates": [-53.13730482098821, 33.32174364087811]}}, {"type": "Feature", "properties": {"norad_id": 37530, "name": "COSMOS 2251 DEB", "group": "cosmos-2251-debris", "lat": 8.33535119956397, "lon": 166.41855672240501, "alt_km": 786.575050770005, "timestamp": "2025-12-04T10:51:50.503859+00:00", "meta": {"OBJECT_NAME": "COSMOS 2251 DEB", "OBJECT_ID": "1993-036BNK", "EPOCH": "2025-11-30T19:50:14.646624", "MEAN_MOTION": 14.34478642, "ECCENTRICITY": 0.00255427, "INCLINATION": 74.0356, "RA_OF_ASC_NODE": 355.4602, "ARG_OF_PERICENTER": 61.4891, "MEAN_ANOMALY": 111.2815, "EPHEMERIS_TYPE": 0, "CLASSIFICATION_TYPE": "U", "NORAD_CAT_ID": 37530, "ELEMENT_SET_NO": 999, "REV_AT_EPOCH": 85061, "BSTAR": 0.00021143929, "MEAN_MOTION_DOT": 5.72e-06, "MEAN_MOTION_DDOT": 0}, "tle": {"line1": "1 37530U 93036BNK 25334.82655841  .00000572  00000+0  21144-3 0  9993", "line2": "2 37530  74.0356 355.4602 0025542  61.4891 111.2815 14.34478642850619"}}, "geometry": {"type": "Point", "coordinates": [166.41855672240501, 8.33535119956397]}}, {"type": "Feature", "properties": {"norad_id": 37532, "name": "COSMOS 2251 DEB", "group": "cosmos-2251-debris", "lat": 68.74075246025724, "lon": -81.6113245317775, "alt_km": 746.1245225809425, "timestamp": "2025-12-04T10:51:50.503870+00:00", "meta": {"OBJECT_NAME": "COSMOS 2251 DEB", "OBJECT_ID": "1993-036BNM", "EPOCH": "2025-12-02T23:37:55.500096", "MEAN_MOTION": 14.4238225, "ECCENTRICITY": 0.00156756, "INCLINATION": 74.0505, "RA_OF_ASC_NODE": 233.7976, "ARG_OF_PERICENTER": 335.7247, "MEAN_ANOMALY": 40.2834, "EPHEMERIS_TYPE": 0, "CLASSIFICATION_TYPE": "U", "NORAD_CAT_ID": 37532, "ELEMENT_SET_NO": 999, "REV_AT_EPOCH": 84775, "BSTAR": 0.00031017071, "MEAN_MOTION_DOT": 1e-05, "MEAN_MOTION_DDOT": 0}, "tle": {"line1": "1 37532U 93036BNM 25336.98467014  .00001000  00000+0  31017-3 0  9994", "line2": "2 37532  74.0505 233.7976 0015675 335.7247  40.2834 14.42382250847758"}}, "geometry": {"type": "Point", "coordinates": [-81.6113245317775, 68.74075246025724]}}, {"type": "Feature", "properties": {"norad_id": 37533, "name": "COSMOS 2251 DEB", "group": "cosmos-2251-debris", "lat": -8.496557698667742, "lon": -156.03323312600656, "alt_km": 846.7921227405232, "timestamp": "2025-12-04T10:51:50.503880+00:00", "meta": {"OBJECT_NAME": "COSMOS 2251 DEB", "OBJECT_ID": "1993-036BNN", "EPOCH": "2025-12-03T09:24:05.948064", "MEAN_MOTION": 14.12090426, "ECCENTRICITY": 0.01584894, "INCLINATION": 74.0692, "RA_OF_ASC_NODE": 208.2815, "ARG_OF_PERICENTER": 267.0153, "MEAN_ANOMALY": 91.2841, "EPHEMERIS_TYPE": 0, "CLASSIFICATION_TYPE": "U", "NORAD_CAT_ID": 37533, "ELEMENT_SET_NO": 999, "REV_AT_EPOCH": 62789, "BSTAR": 0.0018532151, "MEAN_MOTION_DOT": 3.801e-05, "MEAN_MOTION_DDOT": 0}, "tle": {"line1": "1 37533U 93036BNN 25337.39173551  .00003801  00000+0  18532-2 0  9998", "line2": "2 37533  74.0692 208.2815 0158489 267.0153  91.2841 14.12090426627892"}}, "geometry": {"type": "Point", "coordinates": [-156.03323312600656, -8.496557698667742]}}, {"type": "Feature", "properties": {"norad_id": 37535, "name": "COSMOS 2251 DEB", "group": "cosmos-2251-debris", "lat": -26.49020182210151, "lon": 81.07788146064122, "alt_km": 708.3707901718672, "timestamp": "2025-12-04T10:51:50.503890+00:00", "meta": {"OBJECT_NAME": "COSMOS 2251 DEB", "OBJECT_ID": "1993-036BNQ", "EPOCH": "2025-12-04T01:56:02.487840", "MEAN_MOTION": 14.58347894, "ECCENTRICITY": 0.0028215, "INCLINATION": 74.0243, "RA_OF_ASC_NODE": 89.9944, "ARG_OF_PERICENTER": 230.0219, "MEAN_ANOMALY": 309.4656, "EPHEMERIS_TYPE": 0, "CLASSIFICATION_TYPE": "U", "NORAD_CAT_ID": 37535, "ELEMENT_SET_NO": 999, "REV_AT_EPOCH": 85198, "BSTAR": 0.0018331, "MEAN_MOTION_DOT": 8.513e-05, "MEAN_MOTION_DDOT": 0}, "tle": {"line1": "1 37535U 93036BNQ 25338.08058435  .00008513  00000+0  18331-2 0  9992", "line2": "2 37535  74.0243  89.9944 0028215 230.0219 309.4656 14.58347894851980"}}, "geometry": {"type": "Point", "coordinates": [81.07788146064122, -26.49020182210151]}}, {"type": "Feature", "properties": {"norad_id": 37537, "name": "COSMOS 2251 DEB", "group": "cosmos-2251-debris", "lat": 61.98554038710655, "lon": -46.991990015816484, "alt_km": 724.8521430096525, "timestamp": "2025-12-04T10:51:50.503900+00:00", "meta": {"OBJECT_NAME": "COSMOS 2251 DEB", "OBJECT_ID": "1993-036BNS", "EPOCH": "2025-12-03T02:49:20.436096", "MEAN_MOTION": 14.37467313, "ECCENTRICITY": 0.00499683, "INCLINATION": 74.0121, "RA_OF_ASC_NODE": 282.86, "ARG_OF_PERICENTER": 65.6493, "MEAN_ANOMALY": 294.9866, "EPHEMERIS_TYPE": 0, "CLASSIFICATION_TYPE": "U", "NORAD_CAT_ID": 37537, "ELEMENT_SET_NO": 999, "REV_AT_EPOCH": 84895, "BSTAR": 0.00030991104, "MEAN_MOTION_DOT": 9.15e-06, "MEAN_MOTION_DDOT": 0}, "tle": {"line1": "1 37537U 93036BNS 25337.11759764  .00000915  00000+0  30991-3 0  9995", "line2": "2 37537  74.0121 282.8600 0049968  65.6493 294.9866 14.37467313848954"}}, "geometry": {"type": "Point", "coordinates": [-46.991990015816484, 61.98554038710655]}}, {"type": "Feature", "properties": {"norad_id": 37546, "name": "COSMOS 2251 DEB", "group": "cosmos-2251-debris", "lat": -47.053954527328706, "lon": 96.41672069441536, "alt_km": 640.5556992183692, "timestamp": "2025-12-04T10:51:50.503911+00:00", "meta": {"OBJECT_NAME": "COSMOS 2251 DEB", "OBJECT_ID": "1993-036BPB", "EPOCH": "2025-12-04T02:58:34.085568", "MEAN_MOTION": 14.79925039, "ECCENTRICITY": 0.0006702, "INCLINATION": 74.0209, "RA_OF_ASC_NODE": 114.9947, "ARG_OF_PERICENTER": 140.2441, "MEAN_ANOMALY": 219.9227, "EPHEMERIS_TYPE": 0, "CLASSIFICATION_TYPE": "U", "NORAD_CAT_ID": 37546, "ELEMENT_SET_NO": 999, "REV_AT_EPOCH": 65760, "BSTAR": 0.0065339, "MEAN_MOTION_DOT": 0.000497, "MEAN_MOTION_DDOT": 0}, "tle": {"line1": "1 37546U 93036BPB 25338.12400562  .00049700  00000+0  65339-2 0  9994", "line2": "2 37546  74.0209 114.9947 0006702 140.2441 219.9227 14.79925039657600"}}, "geometry": {"type": "Point", "coordinates": [96.41672069441536, -47.053954527328706]}}, {"type": "Feature", "properties": {"norad_id": 37959, "name": "COSMOS 2251 DEB", "group": "cosmos-2251-debris", "lat": 72.99050911374428, "lon": 142.33320570738726, "alt_km": 720.1921822614622, "timestamp": "2025-12-04T10:51:50.503921+00:00", "meta": {"OBJECT_NAME": "COSMOS 2251 DEB", "OBJECT_ID": "1993-036BPJ", "EPOCH": "2025-12-03T06:37:43.731840", "MEAN_MOTION": 14.58029421, "ECCENTRICITY": 0.0058457, "INCLINATION": 74.0113, "RA_OF_ASC_NODE": 74.9761, "ARG_OF_PERICENTER": 219.613, "MEAN_ANOMALY": 172.3716, "EPHEMERIS_TYPE": 0, "CLASSIFICATION_TYPE": "U", "NORAD_CAT_ID": 37959, "ELEMENT_SET_NO": 999, "REV_AT_EPOCH": 79989, "BSTAR": 0.0012228, "MEAN_MOTION_DOT": 5.729e-05, "MEAN_MOTION_DDOT": 0}, "tle": {"line1": "1 37959U 93036BPJ 25337.27620060  .00005729  00000+0  12228-2 0  9996", "line2": "2 37959  74.0113  74.9761 0058457 219.6130 172.3716 14.58029421799891"}}, "geometry": {"type": "Point", "coordinates": [142.33320570738726, 72.99050911374428]}}, {"type": "Feature", "properties": {"norad_id": 37960, "name": "COSMOS 2251 DEB", "group": "cosmos-2251-debris", "lat": 3.5808756046333414, "lon": -157.55891597007965, "alt_km": 1009.0053782642926, "timestamp": "2025-12-04T10:51:50.503931+00:00", "meta": {"OBJECT_NAME": "COSMOS 2251 DEB", "OBJECT_ID": "1993-036BPK", "EPOCH": "2025-12-03T21:12:07.257312", "MEAN_MOTION": 14.07814282, "ECCENTRICITY": 0.0249391, "INCLINATION": 74.0597, "RA_OF_ASC_NODE": 202.4135, "ARG_OF_PERICENTER": 223.2631, "MEAN_ANOMALY": 134.8686, "EPHEMERIS_TYPE": 0, "CLASSIFICATION_TYPE": "U", "NORAD_CAT_ID": 37960, "ELEMENT_SET_NO": 999, "REV_AT_EPOCH": 77281, "BSTAR": 0.0016575, "MEAN_MOTION_DOT": 3.709e-05, "MEAN_MOTION_DDOT": 0}, "tle": {"line1": "1 37960U 93036BPK 25337.88341733  .00003709  00000+0  16575-2 0  9997", "line2": "2 37960  74.0597 202.4135 0249391 223.2631 134.8686 14.07814282772811"}}, "geometry": {"type": "Point", "coordinates": [-157.55891597007965, 3.5808756046333414]}}, {"type": "Feature", "properties": {"norad_id": 37961, "name": "COSMOS 2251 DEB", "group": "cosmos-2251-debris", "lat": 24.579283808938122, "lon": -34.65767133408661, "alt_km": 694.148121999845, "timestamp": "2025-12-04T10:51:50.503942+00:00", "meta": {"OBJECT_NAME": "COSMOS 2251 DEB", "OBJECT_ID": "1993-036BPL", "EPOCH": "2025-12-01T04:44:47.787648", "MEAN_MOTION": 14.57792656, "ECCENTRICITY": 0.0041244, "INCLINATION": 74.04, "RA_OF_ASC_NODE": 159.049, "ARG_OF_PERICENTER": 241.5465, "MEAN_ANOMALY": 118.1542, "EPHEMERIS_TYPE": 0, "CLASSIFICATION_TYPE": "U", "NORAD_CAT_ID": 37961, "ELEMENT_SET_NO": 999, "REV_AT_EPOCH": 79897, "BSTAR": 0.001072, "MEAN_MOTION_DOT": 4.934e-05, "MEAN_MOTION_DDOT": 0}, "tle": {"line1": "1 37961U 93036BPL 25335.19777532  .00004934  00000+0  10720-2 0  9997", "line2": "2 37961  74.0400 159.0490 0041244 241.5465 118.1542 14.57792656798977"}}, "geometry": {"type": "Point", "coordinates": [-34.65767133408661, 24.579283808938122]}}]}